#dP2020 12 31  0  0  0.00000000      96 __u+U ITR00 FIT  IAC
## 2138 345600.00000000   900.00000000 59214 0.0000000000000
+  116   C01C02C03C04C05C06C07C08C09C10C11C12C13C14C16C19C20
+        C21C22C23C24C25C26C27C28C29C30C32C33C34C35C36C37E01
+        E02E03E04E05E07E08E09E11E12E13E14E15E18E19E21E24E25
+        E26E27E30E31E33E36G01G02G03G04G05G06G07G08G09G10G11
+        G12G13G14G15G16G17G18G19G20G21G22G23G24G25G26G27G28
+        G29G30G31G32J01J02J03R01R02R03R04R05R06R07R08R09R10
+        R11R12R13R14R15R16R17R18R19R20R21R22R23R24  0  0  0
++         0 13  0 14 14  9  9  9  8  9  8  8  9  8  9  8  8
++         8  8  8  8  8  8  8  8  8  8  8  8  8  9  8  8  4
++         4  5  4  5  6  6  4  4  5  4  5  5  4  5  5  5  4
++         4  5  4  5  5  4  4  4  4  4  4  4  4  3  4  4  4
++         4  4  4  4  4  4  4  4  4  4  4  4  4  4  4  4  4
++         4  4  4  4  9  8  9  6  6  6  6  6 13  6  6  6 13
++         8  6  7  6  6  6  6  6  7  7  6  7 13  6  0  0  0
%c M  cc GPS ccc cccc cccc cccc cccc ccccc ccccc ccccc ccccc
%c cc cc ccc ccc cccc cccc cccc cccc ccccc ccccc ccccc ccccc
%f  0.0000000  0.000000000  0.00000000000  0.000000000000000
%f  0.0000000  0.000000000  0.00000000000  0.000000000000000
%i    0    0    0    0      0      0      0      0         0
%i    0    0    0    0      0      0      0      0         0
/* INFORMATION & ANALYSIS CENTER (IAC)            RAPID DATA
/* S/V CLOCKS ARE ALIGNED TO GNSS TIME                      
/* G:C1WC2W R:C1PC2P E:C1XC5X C:C2IC6I J:C1CC2S             
/* PCV:IGS14_2134 OL/AL:FES2004  NONE     YN ORB:CoN CLK:CoN
*  2020 12 31  0 30  0.00000000
PC01      0.000000      0.000000      0.000000 999999.999999
PC02   4443.188930  41950.385628   1110.423760    631.552055
PC03      0.000000      0.000000      0.000000 999999.999999
PC04 -39602.522311  14392.911357   -405.796882   -304.189579
PC05  21902.662449  36018.336753   1401.567204   -420.003492
PC06  -8175.919837  34199.507744  24019.598055     95.767660
PC07 -16567.888739  22855.988802 -31199.335972   -180.745196
PC08 -22430.880498  33871.923618  10585.494413   -845.689957
PC09   2792.583786  41179.077934   9894.152888    836.485787
PC10  -1142.015848  26305.758178 -32692.418040   -112.873164
PC11   9184.807159 -20051.536266  17195.118175   -853.311315
PC12  15338.754208  -1014.053265  23332.681609    698.955972
PC13 -11214.603513  34168.013845  21887.735374     76.640340
PC14  14137.080782 -10477.325051 -21627.928646   -203.241812
PC16  -6233.075997  34947.149275  22985.882104   -645.325705
PC19  -4032.773427  15474.031439  22888.019796    673.254247
PC20 -21020.054541   4681.069373  17770.056436   -909.706673
PC21  26185.860605   9454.239363  -1780.463679   -773.713522
PC22  15739.285586  17612.960950  14838.372795   -829.945788
PC23  -5361.512332 -15889.940241  22307.669891   -886.745933
PC24  23862.615005 -13707.973641  -4743.233151   -735.124590
PC25  12185.314554 -21481.267474  13010.941858   -880.393535
PC26  20896.759283    270.209237 -18519.439514    961.179620
PC27 -15611.236318 -10108.041421 -20811.803822    458.284712
PC28  -8276.752124 -25499.911848  -7751.905885   -127.603768
PC29  -2881.754323  25986.307341  -9758.832956    331.946607
PC30 -13519.459850  11155.492352 -21716.956780    424.640683
PC32 -26267.119931  -9261.732117   1778.054929   -881.403015
PC33   4033.953537 -15488.853518 -22860.626935   -892.795331
PC34  13354.614562 -11769.130804  21483.888593   -774.247519
PC35   9029.353783  25338.287733   7495.297877   -488.506749
PC36 -12944.308095  21161.944744 -12752.733416   -789.499988
PC37 -20406.272840  -1503.796686  18979.582944   -861.462215
PE01  28884.430565  -1128.166969  -6398.735089  -1014.573774
PE02 -28885.365444   1195.298526   6301.933637    187.504089
PE03 -22824.378009  -7681.850509  17209.705248   -381.927348
PE04  12947.273383 -11200.829725 -24149.706410   -678.872303
PE05 -19445.302431 -22317.348881     78.044884   -316.902484
PE07   4755.877648  23798.529046  16938.924469   -481.420896
PE08 -12551.874511  11426.283904  24243.524547   6069.244363
PE09  -5100.410679 -23760.101245 -16913.300018   5815.156730
PE11   5192.399847 -28442.934929  -6313.817257   6549.191453
PE12  16071.405463 -21242.836889  12903.551876   5430.886662
PE13  -5357.024485  28494.226966   5979.170493    409.365560
PE14  16766.599897  10033.417524  13395.672813  -1277.940122
PE15 -15917.735973  21389.098075 -12842.447178    836.604352
PE18 -22795.834316  -6021.981410 -22366.456538  -1396.570485
PE19  23097.880267   9850.845312 -15679.256142    166.279680
PE21  17732.944646  10941.999932 -21027.479335   -640.182671
PE24   4845.239498 -17123.773211  23648.869484   -663.765445
PE25 -17553.338813 -11042.581983  21124.392379   -523.329139
PE26   8799.275224  18352.620552  21501.414375   2321.293867
PE27  -4051.991641  17067.780744 -23835.149424     61.250856
PE30 -23863.601204  12724.137646 -12015.582056   3301.981938
PE31  23336.277955 -13136.331951  12629.459938   -476.943178
PE33  17109.903444  -1692.880057  24106.696528   -464.480674
PE36  -8320.449258 -18849.715919 -21239.084355    460.746554
PG01  14228.669559 -22202.467101    283.978697    788.012647
PG02 -17689.621235   6775.971383 -17960.779971   -560.537603
PG03  12546.300302 -13034.007468 -19493.039663    -43.703401
PG04   5367.619339 -18290.233860 -18472.190125   -168.822410
PG05 -26098.756711   3147.661331   4287.795980    -29.726648
PG06 -11938.644039  -8647.884068 -22029.015746     -4.571924
PG07   2672.082278 -22532.608113  13722.243997      2.951763
PG08  11051.451491 -10710.779992  21628.391989     -4.829255
PG09  -5341.013007 -24049.229673  -9963.196566   -307.457240
PG10  17431.958557  11804.596018  16452.380898    -28.215022
PG11  11591.162122 -19899.520890  13084.266531    -66.543195
PG12 -16471.131877  10631.826611 -18085.762110     19.622001
PG13 -15695.119497     36.867449  21306.758033     80.652630
PG14 -14864.006956 -13404.427391  17455.288192     76.488776
PG15  -9875.180755  12863.871668  20631.974111   -179.650503
PG16  26472.895269    470.185587   3984.884569   -258.027047
PG17 -14413.809302 -21323.313299  -6146.145286    374.010279
PG18  -1555.694275  21676.192811  15227.189030    337.393089
PG19 -16453.144635 -16066.057531 -13643.531205    -58.310811
PG20   5397.531402  15056.302115  21165.726106    525.381768
PG21  17200.588865 -17755.139921   9887.405905     82.477808
PG22  19953.014484 -11094.994281 -13240.987165   -706.569287
PG23   6278.284351  14746.520229  21157.798849    113.644950
PG24 -15236.584590  20849.232233   5011.723678      4.391395
PG25  -1811.086418  15206.751561 -21938.907056     50.090416
PG26  25099.454745   5186.504523  -7509.806392     22.592648
PG27  17010.421657   2888.719380  20143.321165    -46.014779
PG28 -17344.330840 -12960.291549  15827.366621    636.222910
PG29   2758.008364  23999.506948 -11028.086884   -266.405846
PG30  -6418.305518 -16579.290248  19715.338375   -361.094469
PG31  14212.693690   6198.054433 -21665.756596    -90.900400
PG32  16316.218243  19934.275537  -6722.005693     11.493032
PJ01 -27755.097487  20679.870006  29107.128736   -335.480614
PJ02 -35878.298071  18570.010627  -7579.398942      0.373254
PJ03 -18466.814953  29345.208056 -19439.242774     -5.093996
PR01   9628.354884  15935.483671  17426.149202     72.791054
PR02  21750.782356  13226.063994  -2052.509744    460.860161
PR03  18403.369174   2060.386080 -17534.706606     28.268729
PR04   4532.292280  -9946.875117 -23026.682624     67.927909
PR05 -11716.173222 -16452.802791 -15558.167706     63.863922
PR06 -22221.999924 -12118.798311   3027.473080    190.114291
PR07 -17979.381611  -1520.120265  18038.155477    -42.006354
PR08  -4573.164813  10094.386369  23023.088833    -56.588812
PR09 -17175.023574  -1512.220982  18840.819143     15.941956
PR10 -23132.903649   9393.996343   5018.868390    -65.158449
PR11 -16098.007895  15213.871932 -12648.316193      5.058771
PR12    674.743954  11724.835968 -22615.847734    192.656173
PR13  16735.156169   1564.074537 -19206.542913    -48.670156
PR14  23241.544516  -9675.259831  -4074.840702     59.313659
PR15  16022.105239 -15055.249956  12958.761481    106.113584
PR16  -1728.620111 -11555.170907  22663.550694     -9.711452
PR17  10522.328787  -7112.126109  22144.490939    387.010787
PR18   6599.855712 -21758.688184  11531.790850     61.491585
PR19    156.139045 -25087.232445  -4623.866813   -125.894860
PR20  -8014.728164 -12794.781517 -20532.694228   -430.058886
PR21 -10365.635562   8219.288685 -21795.712434   -176.942096
PR22  -6240.834314  22475.133032 -10440.627443    -89.854703
PR23   3719.610357  22349.885301  11717.390774    356.272954
PR24   8811.795725  12037.959207  20710.022513     25.988290
EOF
